NORAD_CAT_ID,OBJECT_NAME,OBJECT_TYPE,EPOCH,MEAN_MOTION,ECCENTRICITY,INCLINATION,RA_OF_ASC_NODE,ARG_OF_PERICENTER,MEAN_ANOMALY,BSTAR,MEAN_MOTION_DOT,MEAN_MOTION_DDOT,TLE_LINE0,TLE_LINE1,TLE_LINE2,SEMIMAJOR_AXIS,PERIOD,APOGEE,PERIGEE,DECAYED
52498.0,STARLINK-3925,PAYLOAD,2022-10-04 15:44:27,15.08838287,0.0001742,53.2147,259.7126,48.2155,311.8986,-7.9994e-06,-4.15e-06,0.0,0 STARLINK-3925,1 52498U 22049AZ  22277.65587086 -.00000415  00000-0 -79994-5 0  9995,2 52498  53.2147 259.7126 0001742  48.2155 311.8986 15.08838287 23510,6917.886,95.438,540.956,538.5459999999998,0.0
52498.0,STARLINK-3925,PAYLOAD,2022-10-05 06:02:56,15.08836254,0.0001694,53.2154,257.0356,50.438,309.6761,-3.1411000000000007e-06,-3.38e-06,0.0,0 STARLINK-3925,1 52498U 22049AZ  22278.25203839 -.00000338  00000-0 -31411-5 0  9999,2 52498  53.2154 257.0356 0001694  50.4380 309.6761 15.08836254 23760,6917.892,95.438,540.929,538.585,0.0
52498.0,STARLINK-3925,PAYLOAD,2022-10-06 02:42:56,15.08843597,0.0001774,53.2157,253.1698,49.5883,310.5264,2.6468e-05,1.33e-06,0.0,0 STARLINK-3925,1 52498U 22049AZ  22279.11315440  .00000133  00000-0  26468-4 0  9993,2 52498  53.2157 253.1698 0001774  49.5883 310.5264 15.08843597 23896,6917.869000000002,95.437,540.962,538.507,0.0
52498.0,STARLINK-3925,PAYLOAD,2022-10-06 05:53:43,15.08838092,0.0001581,53.2156,252.5766,49.2878,310.8252,-2.786e-07,-2.92e-06,0.0,0 STARLINK-3925,1 52498U 22049AZ  22279.24563891 -.00000292  00000-0 -27860-6 0  9999,2 52498  53.2156 252.5766 0001581  49.2878 310.8252 15.08838092 23918,6917.886,95.438,540.845,538.658,0.0
52498.0,STARLINK-3925,PAYLOAD,2022-10-07 05:44:30,15.08841878,0.0001753,53.2162,248.1151,56.3896,303.7263,0.00018009,2.579e-05,0.0,0 STARLINK-3925,1 52498U 22049AZ  22280.23923640  .00002579  00000-0  18009-3 0  9992,2 52498  53.2162 248.1151 0001753  56.3896 303.7263 15.08841878 23902,6917.875,95.437,540.952,538.5269999999998,0.0
52498.0,STARLINK-3925,PAYLOAD,2022-10-07 15:16:48,15.08847062,0.0001735,53.2163,246.3292,57.6348,302.4812,0.00015379,2.161e-05,0.0,0 STARLINK-3925,1 52498U 22049AZ  22280.63667300  .00002161  00000-0  15379-3 0  9998,2 52498  53.2163 246.3292 0001735  57.6348 302.4812 15.08847062 24127,6917.859,95.437,540.924,538.524,0.0
52498.0,STARLINK-3925,PAYLOAD,2022-10-08 03:59:54,15.08837557,0.0001639,53.2157,243.9494,63.1906,296.9253,5.9492e-05,6.59e-06,0.0,0 STARLINK-3925,1 52498U 22049AZ  22281.16660053  .00000659  00000-0  59492-4 0  9990,2 52498  53.2157 243.9494 0001639  63.1906 296.9253 15.08837557 24205,6917.888000000001,95.438,540.887,538.619,0.0
52498.0,STARLINK-3925,PAYLOAD,2022-10-08 07:10:40,15.08835323,0.0001623,53.2157,243.3563,46.9268,313.1859,2.9516e-05,1.82e-06,0.0,0 STARLINK-3925,1 52498U 22049AZ  22281.29908354  .00000182  00000-0  29516-4 0  9998,2 52498  53.2157 243.3563 0001623  46.9268 313.1859 15.08835323 24066,6917.895,95.438,540.882,538.637,0.0
52498.0,STARLINK-3925,PAYLOAD,2022-10-08 15:07:36,15.08836134,0.0001718,53.2164,241.8712,52.4224,307.6924,6.6537e-05,7.71e-06,0.0,0 STARLINK-3925,1 52498U 22049AZ  22281.63028455  .00000771  00000-0  66537-4 0  9999,2 52498  53.2164 241.8712 0001718  52.4224 307.6924 15.08836134 24110,6917.892,95.438,540.946,538.569,0.0
52498.0,STARLINK-3925,PAYLOAD,2022-10-09 07:01:27,15.08846681,0.0001585999999999,53.216,238.8958,60.5567,299.5583,5.7804e-05,6.32e-06,0.0,0 STARLINK-3925,1 52498U 22049AZ  22282.29267756  .00000632  00000-0  57804-4 0  9994,2 52498  53.2160 238.8958 0001586  60.5567 299.5583 15.08846681 24373,6917.86,95.437,540.822,538.628,0.0
52498.0,STARLINK-3925,PAYLOAD,2022-10-10 03:41:28,15.08834394,0.000155,53.2162,235.0304,53.4986,306.6148,8.6841e-06,-1.5e-06,0.0,0 STARLINK-3925,1 52498U 22049AZ  22283.15380668 -.00000150  00000-0  86841-5 0  9998,2 52498  53.2162 235.0304 0001550  53.4986 306.6148 15.08834394 24506,6917.898,95.438,540.835,538.69,0.0
52498.0,STARLINK-3925,PAYLOAD,2022-10-11 06:43:02,15.08838225,0.0001512,53.2162,229.976,50.3196,309.793,3.7288e-06,-2.29e-06,0.0,0 STARLINK-3925,1 52498U 22049AZ  22284.27988977 -.00000229  00000-0  37288-5 0  9997,2 52498  53.2162 229.9760 0001512  50.3196 309.7930 15.08838225 24679,6917.886,95.438,540.797,538.705,0.0
52498.0,STARLINK-3925,PAYLOAD,2022-10-11 21:01:31,15.08819669,0.0001521999999999,53.216,227.2997,54.8244,305.289,5.7331e-05,6.24e-06,0.0,0 STARLINK-3925,1 52498U 22049AZ  22284.87606177  .00000624  00000-0  57331-4 0  9990,2 52498  53.2160 227.2997 0001522  54.8244 305.2890 15.08819669 24604,6917.943,95.439,540.86,538.755,0.0
52498.0,STARLINK-3925,PAYLOAD,2022-10-12 03:23:03,15.08829864,0.0001615,53.2158,226.1078,47.1966,312.9161,6.308e-05,7.16e-06,0.0,0 STARLINK-3925,1 52498U 22049AZ  22285.14101783  .00000716  00000-0  63080-4 0  9994,2 52498  53.2158 226.1078 0001615  47.1966 312.9161 15.08829864 24804,6917.911,95.438,540.894,538.659,0.0
52498.0,STARLINK-3925,PAYLOAD,2022-10-12 12:55:23,15.08830849,0.0001585999999999,53.2165,224.3267,57.5091,302.6054,7.1418e-05,8.49e-06,0.0,0 STARLINK-3925,1 52498U 22049AZ  22285.53846081  .00000849  00000-0  71418-4 0  9995,2 52498  53.2165 224.3267 0001586  57.5091 302.6054 15.08830849 24704,6917.908,95.438,540.871,538.6759999999998,0.0
52498.0,STARLINK-3925,PAYLOAD,2022-10-12 19:16:55,15.08833276,0.0001573,53.2167,223.1371,56.2737,303.8405,2.9252e-05,1.77e-06,0.0,0 STARLINK-3925,1 52498U 22049AZ  22285.80342288  .00000177  00000-0  29252-4 0  9998,2 52498  53.2167 223.1371 0001573  56.2737 303.8405 15.08833276 24742,6917.901,95.438,540.854,538.678,0.0
52498.0,STARLINK-3925,PAYLOAD,2022-10-13 04:49:15,15.08827825,0.000156,53.2165,221.3529,57.22,302.8943,-1.4999000000000008e-05,-5.27e-06,0.0,0 STARLINK-3925,1 52498U 22049AZ  22286.20087012 -.00000527  00000-0 -14999-4 0  9997,2 52498  53.2165 221.3529 0001560  57.2200 302.8943 15.08827825 24960,6917.918000000002,95.438,540.862,538.703,0.0
52498.0,STARLINK-3925,PAYLOAD,2022-10-14 03:04:38,15.08842522,0.0001530999999999,53.2162,217.1861,55.6124,304.5013,9.1095e-05,1.162e-05,0.0,0 STARLINK-3925,1 52498U 22049AZ  22287.12821894  .00001162  00000-0  91095-4 0  9999,2 52498  53.2162 217.1861 0001531  55.6124 304.5013 15.08842522 25109,6917.873000000001,95.437,540.797,538.679,0.0
52498.0,STARLINK-3925,PAYLOAD,2022-10-14 12:36:56,15.08843551,0.0001554,53.2167,215.4056,61.7465,298.3684,0.00016956,2.412e-05,0.0,0 STARLINK-3925,1 52498U 22049AZ  22287.52565566  .00002412  00000-0  16956-3 0  9995,2 52498  53.2167 215.4056 0001554  61.7465 298.3684 15.08843551 25008,6917.87,95.437,540.81,538.659,0.0
52498.0,STARLINK-3925,PAYLOAD,2022-10-15 02:55:24,15.08846307,0.0001721999999999,53.2166,212.7281,60.4158,299.7006,7.5427e-05,9.13e-06,0.0,0 STARLINK-3925,1 52498U 22049AZ  22288.12181446  .00000913  00000-0  75427-4 0  9996,2 52498  53.2166 212.7281 0001722  60.4158 299.7006 15.08846307 25093,6917.861,95.437,540.9169999999998,538.535,0.0
52498.0,STARLINK-3925,PAYLOAD,2022-10-16 01:10:48,15.08847193,0.0001659,53.2167,208.5652,64.3419,295.7744,5.7032000000000016e-06,-1.97e-06,0.0,0 STARLINK-3925,1 52498U 22049AZ  22289.04917272 -.00000197  00000-0  57032-5 0  9990,2 52498  53.2167 208.5652 0001659  64.3419 295.7744 15.08847193 25393,6917.858,95.437,540.871,538.576,0.0
52498.0,STARLINK-3925,PAYLOAD,2022-10-16 12:18:30,15.08846231,0.0001651,53.2164,206.4834,64.5177,295.5986,-2.4391e-05,-6.76e-06,0.0,0 STARLINK-3925,1 52498U 22049AZ  22289.51285194 -.00000676  00000-0 -24391-4 0  9997,2 52498  53.2164 206.4834 0001651  64.5177 295.5986 15.08846231 25303,6917.861,95.437,540.868,538.5840000000002,0.0
52498.0,STARLINK-3925,PAYLOAD,2022-10-16 18:40:03,15.08840465,0.0001706,53.2167,205.2943,66.0692,294.0478,-2.2502e-05,-6.46e-06,0.0,0 STARLINK-3925,1 52498U 22049AZ  22289.77781478 -.00000646  00000-0 -22502-4 0  9990,2 52498  53.2167 205.2943 0001706  66.0692 294.0478 15.08840465 25341,6917.879,95.438,540.924,538.564,0.0
52498.0,STARLINK-3925,PAYLOAD,2022-10-17 04:12:22,15.08838601,0.0001705,53.2167,203.5104,64.913,295.2039,-5.4904e-05,-1.162e-05,0.0,0 STARLINK-3925,1 52498U 22049AZ  22290.17525690 -.00001162  00000-0 -54904-4 0  9993,2 52498  53.2167 203.5104 0001705  64.9130 295.2039 15.08838601 25406,6917.885,95.438,540.929,538.57,0.0
52498.0,STARLINK-3925,PAYLOAD,2022-10-18 04:03:10,15.08829308,0.0001764999999999,53.2167,199.0503,63.4965,296.6208,-7.8055e-05,-1.53e-05,0.0,0 STARLINK-3925,1 52498U 22049AZ  22291.16886785 -.00001530  00000-0 -78055-4 0  9990,2 52498  53.2167 199.0503 0001765  63.4965 296.6208 15.08829308 25715,6917.913000000001,95.438,540.999,538.557,0.0
52498.0,STARLINK-3925,PAYLOAD,2022-10-18 10:24:42,15.08835705,0.0001766,53.2167,197.8611,63.36600000000001,296.7513,-1.95e-05,-5.98e-06,0.0,0 STARLINK-3925,1 52498U 22049AZ  22291.43382309 -.00000598  00000-0 -19500-4 0  9996,2 52498  53.2167 197.8611 0001766  63.3660 296.7513 15.08835705 25755,6917.894,95.438,540.98,538.5369999999998,0.0
52498.0,STARLINK-3925,PAYLOAD,2022-10-19 10:15:29,15.08835965,0.0001829,53.2171,193.4015,64.4,295.7181,6.2598e-05,7.08e-06,0.0,0 STARLINK-3925,1 52498U 22049AZ  22292.42742616  .00000708  00000-0  62598-4 0  9993,2 52498  53.2171 193.4015 0001829  64.4000 295.7181 15.08835965 25747,6917.893,95.438,541.023,538.492,0.0
52498.0,STARLINK-3925,PAYLOAD,2022-10-19 19:47:48,15.08834188,0.000178,53.2168,191.6175,65.4979,294.6199,0.00010144,1.326e-05,0.0,0 STARLINK-3925,1 52498U 22049AZ  22292.82486765  .00001326  00000-0  10144-3 0  9993,2 52498  53.2168 191.6175 0001780  65.4979 294.6199 15.08834188 25802,6917.898,95.438,540.995,538.5319999999998,0.0
52498.0,STARLINK-3925,PAYLOAD,2022-10-20 10:06:16,15.08839383,0.0001808,53.217,188.9411,64.414,295.7039,0.00010155,1.328e-05,0.0,0 STARLINK-3925,1 52498U 22049AZ  22293.42102664  .00001328  00000-0  10155-3 0  9997,2 52498  53.2170 188.9411 0001808  64.4140 295.7039 15.08839383 25893,6917.882,95.438,540.998,538.497,0.0
